2024-166B               
1 61180U 24166B   26067.67341263  .00038147  00000+0  25198-3 0  9998
2 61180  96.6921 322.5475 0002182 351.2198   8.9031 15.75502359 84916
STARLINK-11458 [DTC]    
1 62982U 25031B   26068.18043742  .00257149  00000+0  19452-2 0  9999
2 62982  42.9997   4.4108 0000698 264.8823  95.1965 15.70850736 62669
