[{"OBJECT_NAME":"OBJECT B","OBJECT_ID":"2024-166B","EPOCH":"2026-03-08T16:09:42.851232","MEAN_MOTION":15.75502359,"ECCENTRICITY":0.0002182,"INCLINATION":96.6921,"RA_OF_ASC_NODE":322.5475,"ARG_OF_PERICENTER":351.2198,"MEAN_ANOMALY":8.9031,"EPHEMERIS_TYPE":0,"CLASSIFICATION_TYPE":"U","NORAD_CAT_ID":61180,"ELEMENT_SET_NO":999,"REV_AT_EPOCH":8491,"BSTAR":0.00025198,"MEAN_MOTION_DOT":0.00038147,"MEAN_MOTION_DDOT":0},{"OBJECT_NAME":"STARLINK-11458 [DTC]","OBJECT_ID":"2025-031B","EPOCH":"2026-03-09T04:19:49.793088","MEAN_MOTION":15.70850736,"ECCENTRICITY":6.98e-5,"INCLINATION":42.9997,"RA_OF_ASC_NODE":4.4108,"ARG_OF_PERICENTER":264.8823,"MEAN_ANOMALY":95.1965,"EPHEMERIS_TYPE":0,"CLASSIFICATION_TYPE":"U","NORAD_CAT_ID":62982,"ELEMENT_SET_NO":999,"REV_AT_EPOCH":6266,"BSTAR":0.0019452284,"MEAN_MOTION_DOT":0.00257149,"MEAN_MOTION_DDOT":0}]
